[{"OBJECT_ID":"2016-014A","OBJECT_NAME":"EUTE 65W","NORAD_CAT_ID":"41382","OBJECT_TYPE":"PAYLOAD","PERIOD":"1436.057","INCLINATION":"0.0473","APOGEE":"35792.953","PERIGEE":"35778.684","ECCENTRICITY":"0.0001692","MEAN_MOTION":"1.0027456","TLE_LINE1":"1 41382U 16014A   16238.25353987 -.00000302  00000-0  00000+0 0  9997","TLE_LINE2":"2 41382   0.0473 329.3030 0001692 230.6988 159.9862  1.00274560  1723","LAUNCH_DATE":"2016-03-09","LAUNCH_SITE":"FRENCH GUIANA","OWNER":"EUROPEAN TELECOMMUNICATIONS SATELLITE ORGANIZATION (EUTELSAT)","ORBIT_TYPE":"Geosynchronous","OPERATIONAL_STATUS":"Operational","satInfo":{"lng":-77.34481734797725,"lat":-0.0063316806494892915,"elevation":-8.577416518973902,"azimuth":32.34481734797723,"range":42654.81705238805,"height":35799.59661034778,"velocity":3.074216826701999},"x":-297,"y":-63,"dx":0.6735088418587959,"dy":-2.999532453152613},{"OBJECT_ID":"2016-014B","OBJECT_NAME":"ARIANE 5 R/B","NORAD_CAT_ID":"41383","OBJECT_TYPE":"ROCKET BODY","PERIOD":"618.509","INCLINATION":"0.8595","APOGEE":"35138.953","PERIGEE":"198.406","ECCENTRICITY":"0.7265109","MEAN_MOTION":"2.32817923","TLE_LINE1":"1 41383U 16014B   16238.60969353  .00014742  97915-7  12012-2 0  9996","TLE_LINE2":"2 41383   0.8595  42.8498 7265109 281.5241   4.1007  2.32817923  3907","LAUNCH_DATE":"2016-03-09","LAUNCH_SITE":"FRENCH GUIANA","OWNER":"FRANCE","ORBIT_TYPE":"Highly Elliptical Orbit","OPERATIONAL_STATUS":"N/A, derelict rocket body","satInfo":{"lng":-153.26715716596865,"lat":0.1587514521577122,"elevation":-9.714629816509083,"azimuth":108.26715716596864,"range":37074.49552411007,"height":30164.865755158105,"velocity":1.8563034611816274},"x":-117,"y":215,"dx":-1.6578900245401367,"dy":-0.8350228778453884},{"OBJECT_ID":"2016-028A","OBJECT_NAME":"JCSAT-14","NORAD_CAT_ID":"41471","OBJECT_TYPE":"PAYLOAD","PERIOD":"1436.104","INCLINATION":"0.045","APOGEE":"35794.575","PERIGEE":"35778.932","ECCENTRICITY":"0.0001855","MEAN_MOTION":"1.00271224","TLE_LINE1":"1 41471U 16028A   16237.64632972 -.00000190  00000-0  00000+0 0  9992","TLE_LINE2":"2 41471   0.0450 284.1718 0001855 224.9684 210.8664  1.00271224  1167","LAUNCH_DATE":"2016-05-06","LAUNCH_SITE":"AIR FORCE EASTERN TEST RANGE","OWNER":"JAPAN","ORBIT_TYPE":"Geosynchronous","OPERATIONAL_STATUS":"Operational","satInfo":{"lng":-135.86388553208195,"lat":-0.5151317522726236,"elevation":-9.071012338414336,"azimuth":90.86388553208194,"range":42725.77595522363,"height":35815.001040798255,"velocity":3.0736859804416445},"x":-213,"y":205,"dx":-2.2059460375398032,"dy":-2.1404082754993157},{"OBJECT_ID":"2015-075D","OBJECT_NAME":"BREEZE-M DEB","NORAD_CAT_ID":"41543","OBJECT_TYPE":"DEBRIS","PERIOD":"1367.406","INCLINATION":"0.5619","APOGEE":"35470.677","PERIGEE":"33391.560","ECCENTRICITY":"0.0254736","MEAN_MOTION":"1.05308829","TLE_LINE1":"1 41543U 15075D   16234.46320362 -.00000156  00000-0  00000+0 0  9999","TLE_LINE2":"2 41543   0.5619 104.3093 0254736  55.9013 200.8037  1.05308829  2301","LAUNCH_DATE":"2015-12-13","LAUNCH_SITE":"TYURATAM MISSILE AND SPACE COMPLEX","OWNER":"COMMONWEALTH OF INDEPENDENT STATES","ORBIT_TYPE":"Unclassified","OPERATIONAL_STATUS":"N/A, space debris","satInfo":{"lng":-78.02846193299264,"lat":-1.9922095237421955,"elevation":-10.663359886508617,"azimuth":33.02846193299264,"range":42130.98242656064,"height":35050.31439845542,"velocity":3.0782615968972395},"x":-292,"y":-58,"dx":0.6385107697441628,"dy":-3.0113117500273963},{"OBJECT_ID":"2015-075E","OBJECT_NAME":"BREEZE-M DEB","NORAD_CAT_ID":"41544","OBJECT_TYPE":"DEBRIS","PERIOD":"1362.593","INCLINATION":"0.5382","APOGEE":"35550.786","PERIGEE":"33119.811","ECCENTRICITY":"0.0298547","MEAN_MOTION":"1.05680816","TLE_LINE1":"1 41544U 15075E   16237.47823666 -.00000155  00000-0  00000+0 0  9998","TLE_LINE2":"2 41544   0.5382 118.1042 0298547  42.9023 200.1357  1.05680816  2342","LAUNCH_DATE":"2015-12-13","LAUNCH_SITE":"TYURATAM MISSILE AND SPACE COMPLEX","OWNER":"COMMONWEALTH OF INDEPENDENT STATES","ORBIT_TYPE":"Unclassified","OPERATIONAL_STATUS":"N/A, space debris","satInfo":{"lng":-39.205460786780314,"lat":-2.4158866456495396,"elevation":-10.985818438930904,"azimuth":354.20546078678035,"range":42610.560255134995,"height":35488.73256535642,"velocity":3.0415869061911236},"x":-192,"y":-220,"dx":2.3568777803638534,"dy":-1.9225966910250434},{"OBJECT_ID":"2015-075F","OBJECT_NAME":"BREEZE-M DEB","NORAD_CAT_ID":"41545","OBJECT_TYPE":"DEBRIS","PERIOD":"1363.184","INCLINATION":"0.5382","APOGEE":"35409.955","PERIGEE":"33284.189","ECCENTRICITY":"0.0260989","MEAN_MOTION":"1.05634993","TLE_LINE1":"1 41545U 15075F   16235.67824173 -.00000091 +00000-0 +00000-0 0  9993","TLE_LINE2":"2 41545 000.5382 121.5247 0260989 043.4208 195.8531 01.05634993002336","LAUNCH_DATE":"2015-12-13","LAUNCH_SITE":"TYURATAM MISSILE AND SPACE COMPLEX","OWNER":"COMMONWEALTH OF INDEPENDENT STATES","ORBIT_TYPE":"Unclassified","OPERATIONAL_STATUS":"N/A, space debris","satInfo":{"lng":95.4624048218157,"lat":0.9653667242272174,"elevation":-8.038350827004614,"azimuth":219.53759517818432,"range":40619.79673849925,"height":33848.26131151453,"velocity":3.1670918365922516},"x":282,"y":25,"dx":-0.3014836845767965,"dy":3.1527096741284755},{"OBJECT_ID":"2015-075G","OBJECT_NAME":"BREEZE-M DEB","NORAD_CAT_ID":"41546","OBJECT_TYPE":"DEBRIS","PERIOD":"1376.156","INCLINATION":"0.5543","APOGEE":"35616.607","PERIGEE":"33593.449","ECCENTRICITY":"0.0246828","MEAN_MOTION":"1.04639232","TLE_LINE1":"1 41546U 15075G   16237.77216399 -.00000198  00000-0  00000+0 0  9999","TLE_LINE2":"2 41546   0.5543 131.4778 0246828  18.7716 211.1783  1.04639232  2320","LAUNCH_DATE":"2015-12-13","LAUNCH_SITE":"TYURATAM MISSILE AND SPACE COMPLEX","OWNER":"COMMONWEALTH OF INDEPENDENT STATES","ORBIT_TYPE":"Unclassified","OPERATIONAL_STATUS":"N/A, space debris","satInfo":{"lng":-146.98676141973525,"lat":1.7732504474079278,"elevation":-7.158081392680695,"azimuth":101.98676141973522,"range":40936.380723500944,"height":34258.63082842379,"velocity":3.1451636713589766},"x":-160,"y":229,"dx":-2.637360336683663,"dy":-1.7135883327462615},{"OBJECT_ID":"2015-075H","OBJECT_NAME":"BREEZE-M DEB","NORAD_CAT_ID":"41547","OBJECT_TYPE":"DEBRIS","PERIOD":"1395.453","INCLINATION":"0.5451","APOGEE":"36127.076","PERIGEE":"33847.445","ECCENTRICITY":"0.0275548","MEAN_MOTION":"1.03192227","TLE_LINE1":"1 41547U 15075H   16223.44025574 -.00000249  00000-0  00000+0 0  9999","TLE_LINE2":"2 41547   0.5451 135.7869 0275548 352.5710 234.1506  1.03192227  2157","LAUNCH_DATE":"2015-12-13","LAUNCH_SITE":"TYURATAM MISSILE AND SPACE COMPLEX","OWNER":"COMMONWEALTH OF INDEPENDENT STATES","ORBIT_TYPE":"Unclassified","OPERATIONAL_STATUS":"N/A, space debris","satInfo":{"lng":-103.2436909642127,"lat":0.4266485967106476,"elevation":-8.156664654583707,"azimuth":58.24369096421268,"range":42595.48340945222,"height":35787.61085901651,"velocity":3.0447534306503288},"x":-296,"y":65,"dx":-0.6975323291321064,"dy":-2.963776662178256},{"OBJECT_ID":"2015-075J","OBJECT_NAME":"BREEZE-M DEB","NORAD_CAT_ID":"41548","OBJECT_TYPE":"DEBRIS","PERIOD":"1409.062","INCLINATION":"1.01","APOGEE":"36894.013","PERIGEE":"33617.485","ECCENTRICITY":"0.0393493","MEAN_MOTION":"1.02195639","TLE_LINE1":"1 41548U 15075J   16228.57390672 -.00000272 +00000-0 +00000-0 0  9990","TLE_LINE2":"2 41548 001.0100 063.8404 0393493 056.6175 307.7740 01.02195639002558","LAUNCH_DATE":"2015-12-13","LAUNCH_SITE":"TYURATAM MISSILE AND SPACE COMPLEX","OWNER":"COMMONWEALTH OF INDEPENDENT STATES","ORBIT_TYPE":"Unclassified","OPERATIONAL_STATUS":"N/A, space debris","satInfo":{"lng":2.538529379777559,"lat":-0.6972994132929153,"elevation":-9.276511951701156,"azimuth":312.4614706202224,"range":42608.102128583836,"height":35675.84251119068,"velocity":3.0631871986567396},"x":11,"y":-285,"dx":3.0601811803454244,"dy":0.13567224282884086},{"OBJECT_ID":"2016-031A","OBJECT_NAME":"THAICOM 8","NORAD_CAT_ID":"41552","OBJECT_TYPE":"PAYLOAD","PERIOD":"1436.093","INCLINATION":"0.0677","APOGEE":"35795.188","PERIGEE":"35777.875","ECCENTRICITY":"0.0002053","MEAN_MOTION":"1.00272016","TLE_LINE1":"1 41552U 16031A   16238.85274488 -.00000149 +00000-0 +00000-0 0  9999","TLE_LINE2":"2 41552 000.0677 052.9549 0002053 037.8073 269.2548 01.00272016000804","LAUNCH_DATE":"2016-05-27","LAUNCH_SITE":"AIR FORCE EASTERN TEST RANGE","OWNER":"THAILAND","ORBIT_TYPE":"Geosynchronous","OPERATIONAL_STATUS":"Operational","satInfo":{"lng":72.13613380483773,"lat":1.6837930841049644,"elevation":-6.927627497621123,"azimuth":242.86386619516227,"range":42446.593691696085,"height":35776.750309987765,"velocity":3.0753780551748866},"x":285,"y":-88,"dx":0.9433919931937947,"dy":2.9271080829769693},{"OBJECT_ID":"2016-035A","OBJECT_NAME":"INTELSAT 31","NORAD_CAT_ID":"41581","OBJECT_TYPE":"PAYLOAD","PERIOD":"1436.103","INCLINATION":"0.0315","APOGEE":"35797.000","PERIGEE":"35776.449","ECCENTRICITY":"0.0002437","MEAN_MOTION":"1.00271329","TLE_LINE1":"1 41581U 16035A   16239.52470808 -.00000180  00000-0  00000+0 0  9998","TLE_LINE2":"2 41581   0.0315 215.3317 0002437  18.6981 194.9947  1.00271329   795","LAUNCH_DATE":"2016-06-09","LAUNCH_SITE":"TYURATAM MISSILE AND SPACE COMPLEX","OWNER":"INTERNATIONAL TELECOMMUNICATIONS SATELLITE ORGANIZATION (INTELSAT)","ORBIT_TYPE":"Geosynchronous","OPERATIONAL_STATUS":"Operational","satInfo":{"lng":-104.41204430945042,"lat":1.1963113348791787,"elevation":-7.404458246687062,"azimuth":59.41204430945042,"range":42505.42549585716,"height":35782.0219640592,"velocity":3.0751972242248984},"x":-295,"y":71,"dx":-0.7653965705019992,"dy":-2.97842341814328}]